{
  "type": "FeatureCollection",
  "features": [
    {
      "type": "Feature",
      "properties": {
        "norad_id": 29994,
        "name": "FENGYUN 1C DEB",
        "group": "fengyun-1c-debris",
        "lat": -58.32763447587577,
        "lon": 31.122788930679285,
        "alt_km": 874.0152496277042,
        "timestamp": "2025-12-10T04:57:29.891351+00:00",
        "meta_object_name": "FENGYUN 1C DEB",
        "meta_object_id": "1999-025LU",
        "meta_epoch": "2025-12-09T12:53:30.897888",
        "meta_mean_motion": 14.02641648,
        "meta_eccentricity": 0.0129511,
        "meta_inclination": 98.8298,
        "meta_ra_of_asc_node": 15.8809,
        "meta_arg_of_pericenter": 222.5899,
        "meta_mean_anomaly": 298.1143,
        "meta_ephemeris_type": 0,
        "meta_classification_type": "U",
        "meta_norad_cat_id": 29994,
        "meta_element_set_no": 999,
        "meta_rev_at_epoch": 96681,
        "meta_bstar": 0.00029568,
        "meta_mean_motion_dot": 4.48e-06,
        "meta_mean_motion_ddot": 0,
        "tle_line1": "1 29994U 99025LU  25343.53716317  .00000448  00000+0  29568-3 0  9996",
        "tle_line2": "2 29994  98.8298  15.8809 0129511 222.5899 298.1143 14.02641648966810"
      },
      "geometry": {
        "type": "Point",
        "coordinates": [
          31.122788930679285,
          -58.32763447587577
        ]
      }
    },
    {
      "type": "Feature",
      "properties": {
        "norad_id": 29996,
        "name": "FENGYUN 1C DEB",
        "group": "fengyun-1c-debris",
        "lat": 56.16019864632348,
        "lon": 7.349432681014107,
        "alt_km": 779.9126575828359,
        "timestamp": "2025-12-10T04:57:29.891361+00:00",
        "meta_object_name": "FENGYUN 1C DEB",
        "meta_object_id": "1999-025LW",
        "meta_epoch": "2025-12-09T14:03:52.716384",
        "meta_mean_motion": 14.09387953,
        "meta_eccentricity": 0.0131929,
        "meta_inclination": 99.3032,
        "meta_ra_of_asc_node": 20.8602,
        "meta_arg_of_pericenter": 96.7438,
        "meta_mean_anomaly": 54.6258,
        "meta_ephemeris_type": 0,
        "meta_classification_type": "U",
        "meta_norad_cat_id": 29996,
        "meta_element_set_no": 999,
        "meta_rev_at_epoch": 96092,
        "meta_bstar": 0.0024843,
        "meta_mean_motion_dot": 4.653e-05,
        "meta_mean_motion_ddot": 0,
        "tle_line1": "1 29996U 99025LW  25343.58602681  .00004653  00000+0  24843-2 0  9993",
        "tle_line2": "2 29996  99.3032  20.8602 0131929  96.7438  54.6258 14.09387953960928"
      },
      "geometry": {
        "type": "Point",
        "coordinates": [
          7.349432681014107,
          56.16019864632348
        ]
      }
    },
    {
      "type": "Feature",
      "properties": {
        "norad_id": 29997,
        "name": "FENGYUN 1C DEB",
        "group": "fengyun-1c-debris",
        "lat": 29.806649654622753,
        "lon": 179.86365371299007,
        "alt_km": 947.3628085748041,
        "timestamp": "2025-12-10T04:57:29.891371+00:00",
        "meta_object_name": "FENGYUN 1C DEB",
        "meta_object_id": "1999-025LX",
        "meta_epoch": "2025-12-09T20:15:45.054144",
        "meta_mean_motion": 14.00868066,
        "meta_eccentricity": 0.0080273,
        "meta_inclination": 98.8812,
        "meta_ra_of_asc_node": 354.3725,
        "meta_arg_of_pericenter": 335.4208,
        "meta_mean_anomaly": 147.9592,
        "meta_ephemeris_type": 0,
        "meta_classification_type": "U",
        "meta_norad_cat_id": 29997,
        "meta_element_set_no": 999,
        "meta_rev_at_epoch": 96349,
        "meta_bstar": 0.0012062,
        "meta_mean_motion_dot": 1.81e-05,
        "meta_mean_motion_ddot": 0,
        "tle_line1": "1 29997U 99025LX  25343.84427146  .00001810  00000+0  12062-2 0  9996",
        "tle_line2": "2 29997  98.8812 354.3725 0080273 335.4208 147.9592 14.00868066963495"
      },
      "geometry": {
        "type": "Point",
        "coordinates": [
          179.86365371299007,
          29.806649654622753
        ]
      }
    },
    {
      "type": "Feature",
      "properties": {
        "norad_id": 29998,
        "name": "FENGYUN 1C DEB",
        "group": "fengyun-1c-debris",
        "lat": 31.385030874975573,
        "lon": -129.82314902380966,
        "alt_km": 798.0174522853631,
        "timestamp": "2025-12-10T04:57:29.891382+00:00",
        "meta_object_name": "FENGYUN 1C DEB",
        "meta_object_id": "1999-025LY",
        "meta_epoch": "2025-12-09T14:49:09.640416",
        "meta_mean_motion": 14.28525519,
        "meta_eccentricity": 0.000472,
        "meta_inclination": 99.3061,
        "meta_ra_of_asc_node": 43.8082,
        "meta_arg_of_pericenter": 309.9918,
        "meta_mean_anomaly": 50.0846,
        "meta_ephemeris_type": 0,
        "meta_classification_type": "U",
        "meta_norad_cat_id": 29998,
        "meta_element_set_no": 999,
        "meta_rev_at_epoch": 97830,
        "meta_bstar": 0.0013797,
        "meta_mean_motion_dot": 3.41e-05,
        "meta_mean_motion_ddot": 0,
        "tle_line1": "1 29998U 99025LY  25343.61747269  .00003410  00000+0  13797-2 0  9997",
        "tle_line2": "2 29998  99.3061  43.8082 0004720 309.9918  50.0846 14.28525519978306"
      },
      "geometry": {
        "type": "Point",
        "coordinates": [
          -129.82314902380966,
          31.385030874975573
        ]
      }
    },
    {
      "type": "Feature",
      "properties": {
        "norad_id": 29999,
        "name": "FENGYUN 1C DEB",
        "group": "fengyun-1c-debris",
        "lat": -19.53919546602296,
        "lon": -28.38289935744314,
        "alt_km": 951.6373739493592,
        "timestamp": "2025-12-10T04:57:29.891392+00:00",
        "meta_object_name": "FENGYUN 1C DEB",
        "meta_object_id": "1999-025LZ",
        "meta_epoch": "2025-12-09T18:01:19.563168",
        "meta_mean_motion": 14.20128334,
        "meta_eccentricity": 0.0189458,
        "meta_inclination": 98.5761,
        "meta_ra_of_asc_node": 328.1052,
        "meta_arg_of_pericenter": 135.1709,
        "meta_mean_anomaly": 37.8504,
        "meta_ephemeris_type": 0,
        "meta_classification_type": "U",
        "meta_norad_cat_id": 29999,
        "meta_element_set_no": 999,
        "meta_rev_at_epoch": 97681,
        "meta_bstar": 0.00042399,
        "meta_mean_motion_dot": 1.04e-05,
        "meta_mean_motion_ddot": 0,
        "tle_line1": "1 29999U 99025LZ  25343.75092087  .00001040  00000+0  42399-3 0  9992",
        "tle_line2": "2 29999  98.5761 328.1052 0189458 135.1709  37.8504 14.20128334976814"
      },
      "geometry": {
        "type": "Point",
        "coordinates": [
          -28.38289935744314,
          -19.53919546602296
        ]
      }
    },
    {
      "type": "Feature",
      "properties": {
        "norad_id": 30001,
        "name": "FENGYUN 1C DEB",
        "group": "fengyun-1c-debris",
        "lat": 57.63022183610838,
        "lon": -106.4464939737948,
        "alt_km": 731.3534166644176,
        "timestamp": "2025-12-10T04:57:29.891403+00:00",
        "meta_object_name": "FENGYUN 1C DEB",
        "meta_object_id": "1999-025MA",
        "meta_epoch": "2025-12-09T03:39:32.793696",
        "meta_mean_motion": 14.38489134,
        "meta_eccentricity": 0.00384045,
        "meta_inclination": 98.9589,
        "meta_ra_of_asc_node": 58.0436,
        "meta_arg_of_pericenter": 109.2037,
        "meta_mean_anomaly": 316.0351,
        "meta_ephemeris_type": 0,
        "meta_classification_type": "U",
        "meta_norad_cat_id": 30001,
        "meta_element_set_no": 999,
        "meta_rev_at_epoch": 97380,
        "meta_bstar": 0.0031612264,
        "meta_mean_motion_dot": 9.705e-05,
        "meta_mean_motion_ddot": 0,
        "tle_line1": "1 30001U 99025MA  25343.15246289  .00009705  00000+0  31612-2 0  9998",
        "tle_line2": "2 30001  98.9589  58.0436 0038404 109.2037 316.0351 14.38489134973802"
      },
      "geometry": {
        "type": "Point",
        "coordinates": [
          -106.4464939737948,
          57.63022183610838
        ]
      }
    },
    {
      "type": "Feature",
      "properties": {
        "norad_id": 30003,
        "name": "FENGYUN 1C DEB",
        "group": "fengyun-1c-debris",
        "lat": 48.075828814172624,
        "lon": -51.88366105911006,
        "alt_km": 915.4505024465952,
        "timestamp": "2025-12-10T04:57:29.891413+00:00",
        "meta_object_name": "FENGYUN 1C DEB",
        "meta_object_id": "1999-025MC",
        "meta_epoch": "2025-12-09T17:26:11.982048",
        "meta_mean_motion": 13.85620622,
        "meta_eccentricity": 0.0143324,
        "meta_inclination": 99.5763,
        "meta_ra_of_asc_node": 318.4614,
        "meta_arg_of_pericenter": 127.8113,
        "meta_mean_anomaly": 49.4226,
        "meta_ephemeris_type": 0,
        "meta_classification_type": "U",
        "meta_norad_cat_id": 30003,
        "meta_element_set_no": 999,
        "meta_rev_at_epoch": 95446,
        "meta_bstar": 0.00042843,
        "meta_mean_motion_dot": 4.85e-06,
        "meta_mean_motion_ddot": 0,
        "tle_line1": "1 30003U 99025MC  25343.72652757  .00000485  00000+0  42843-3 0  9999",
        "tle_line2": "2 30003  99.5763 318.4614 0143324 127.8113  49.4226 13.85620622954464"
      },
      "geometry": {
        "type": "Point",
        "coordinates": [
          -51.88366105911006,
          48.075828814172624
        ]
      }
    }
  ]
}